[
    {
        "Altitude(m)": 705270.0511537592,
        "Argument of Periapsis(deg)": 0.0022780242373254137,
        "Eccentricity": 0.0,
        "Inclination(deg)": 45.0,
        "Latitude(deg)": -10.002502564176696,
        "Longitude(deg)": -75.23343795489495,
        "Mean Anomaly(deg)": -14.056956670503896,
        "RAAN(deg)": 34.99784961170836,
        "Satellite Name": "Constellation 1 175",
        "Satellite Number": 175,
        "Semi-Major Axis(m)": 7083131.272910544,
        "Time(s)": 38
    },
    {
        "Altitude(m)": 705260.0128921419,
        "Argument of Periapsis(deg)": 0.002337972243570819,
        "Eccentricity": 0.0,
        "Inclination(deg)": 45.0,
        "Latitude(deg)": -9.959985479407287,
        "Longitude(deg)": -75.19339046168264,
        "Mean Anomaly(deg)": -13.996255530253983,
        "RAAN(deg)": 34.99779302254279,
        "Satellite Name": "Constellation 1 175",
        "Satellite Number": 175,
        "Semi-Major Axis(m)": 7083131.272910544,
        "Time(s)": 39
    },
    {
        "Altitude(m)": 705249.9913582327,
        "Argument of Periapsis(deg)": 0.0023979202498162246,
        "Eccentricity": 0.0,
        "Inclination(deg)": 45.0,
        "Latitude(deg)": -9.917462365923226,
        "Longitude(deg)": -75.15335430127206,
        "Mean Anomaly(deg)": -13.935554390004075,
        "RAAN(deg)": 34.99773643337722,
        "Satellite Name": "Constellation 1 175",
        "Satellite Number": 175,
        "Semi-Major Axis(m)": 7083131.272910544,
        "Time(s)": 40
    },
    {
        "Altitude(m)": 705239.986578974,
        "Argument of Periapsis(deg)": 0.00245786825606163,
        "Eccentricity": 0.0,
        "Inclination(deg)": 45.0,
        "Latitude(deg)": -9.874933251055253,
        "Longitude(deg)": -75.11332942267032,
        "Mean Anomaly(deg)": -13.874853249754162,
        "RAAN(deg)": 34.997679844211646,
        "Satellite Name": "Constellation 1 175",
        "Satellite Number": 175,
        "Semi-Major Axis(m)": 7083131.272910544,
        "Time(s)": 41
    },
    {
        "Altitude(m)": 705229.998581224,
        "Argument of Periapsis(deg)": 0.002517816262307036,
        "Eccentricity": 0.0,
        "Inclination(deg)": 45.0,
        "Latitude(deg)": -9.832398162112861,
        "Longitude(deg)": -75.07331577490717,
        "Mean Anomaly(deg)": -13.814152109504306,
        "RAAN(deg)": 34.99762325504608,
        "Satellite Name": "Constellation 1 175",
        "Satellite Number": 175,
        "Semi-Major Axis(m)": 7083131.272910544,
        "Time(s)": 42
    },
    {
        "Altitude(m)": 705220.0273917684,
        "Argument of Periapsis(deg)": 0.0025777642685524413,
        "Eccentricity": 0.0,
        "Inclination(deg)": 45.0,
        "Latitude(deg)": -9.789857126384089,
        "Longitude(deg)": -75.03331330703482,
        "Mean Anomaly(deg)": -13.753450969254343,
        "RAAN(deg)": 34.997566665880505,
        "Satellite Name": "Constellation 1 175",
        "Satellite Number": 175,
        "Semi-Major Axis(m)": 7083131.272910544,
        "Time(s)": 43
    },
    {
        "Altitude(m)": 705210.0730372977,
        "Argument of Periapsis(deg)": 0.002637712274797847,
        "Eccentricity": 0.0,
        "Inclination(deg)": 45.0,
        "Latitude(deg)": -9.747310171136181,
        "Longitude(deg)": -74.9933221362252,
        "Mean Anomaly(deg)": -13.692749829004487,
        "RAAN(deg)": 34.99751007671494,
        "Satellite Name": "Constellation 1 175",
        "Satellite Number": 175,
        "Semi-Major Axis(m)": 7083131.272910544,
        "Time(s)": 44
    },
    {
        "Altitude(m)": 705200.1355444429,
        "Argument of Periapsis(deg)": 0.0026976602810432526,
        "Eccentricity": 0.0,
        "Inclination(deg)": 45.0,
        "Latitude(deg)": -9.704757323614903,
        "Longitude(deg)": -74.9533418753811,
        "Mean Anomaly(deg)": -13.632048688754573,
        "RAAN(deg)": 34.997453487549365,
        "Satellite Name": "Constellation 1 175",
        "Satellite Number": 175,
        "Semi-Major Axis(m)": 7083131.272910544,
        "Time(s)": 45
    },
    {
        "Altitude(m)": 705190.2149397323,
        "Argument of Periapsis(deg)": 0.0027576082872886585,
        "Eccentricity": 0.0,
        "Inclination(deg)": 45.0,
        "Latitude(deg)": -9.662198611045435,
        "Longitude(deg)": -74.91337264171909,
        "Mean Anomaly(deg)": -13.571347548504718,
        "RAAN(deg)": 34.9973968983838,
        "Satellite Name": "Constellation 1 175",
        "Satellite Number": 175,
        "Semi-Major Axis(m)": 7083131.272910544,
        "Time(s)": 46
    },
    {
        "Altitude(m)": 705180.3112496298,
        "Argument of Periapsis(deg)": 0.0028175562935340644,
        "Eccentricity": 0.0,
        "Inclination(deg)": 45.0,
        "Latitude(deg)": -9.61963406063186,
        "Longitude(deg)": -74.87341438438064,
        "Mean Anomaly(deg)": -13.51064640825475,
        "RAAN(deg)": 34.99734030921823,
        "Satellite Name": "Constellation 1 175",
        "Satellite Number": 175,
        "Semi-Major Axis(m)": 7083131.272910544,
        "Time(s)": 47
    },
    {
        "Altitude(m)": 705170.4245005077,
        "Argument of Periapsis(deg)": 0.00287750429977947,
        "Eccentricity": 0.0,
        "Inclination(deg)": 45.0,
        "Latitude(deg)": -9.577063699557739,
        "Longitude(deg)": -74.83346705252958,
        "Mean Anomaly(deg)": -13.449945268004846,
        "RAAN(deg)": 34.997283720052664,
        "Satellite Name": "Constellation 1 175",
        "Satellite Number": 175,
        "Semi-Major Axis(m)": 7083131.272910544,
        "Time(s)": 48
    },
    {
        "Altitude(m)": 705160.5547186652,
        "Argument of Periapsis(deg)": 0.002937452306024875,
        "Eccentricity": 0.0,
        "Inclination(deg)": 45.0,
        "Latitude(deg)": -9.534487554985878,
        "Longitude(deg)": -74.79353059535161,
        "Mean Anomaly(deg)": -13.389244127754983,
        "RAAN(deg)": 34.99722713088709,
        "Satellite Name": "Constellation 1 175",
        "Satellite Number": 175,
        "Semi-Major Axis(m)": 7083131.272910544,
        "Time(s)": 49
    },
    {
        "Altitude(m)": 705150.7019303115,
        "Argument of Periapsis(deg)": 0.0029974003122702807,
        "Eccentricity": 0.0,
        "Inclination(deg)": 45.0,
        "Latitude(deg)": -9.491905654058511,
        "Longitude(deg)": -74.75360496205447,
        "Mean Anomaly(deg)": -13.328542987505129,
        "RAAN(deg)": 34.99717054172152,
        "Satellite Name": "Constellation 1 175",
        "Satellite Number": 175,
        "Semi-Major Axis(m)": 7083131.272910544,
        "Time(s)": 50
    },
    {
        "Altitude(m)": 705140.866161585,
        "Argument of Periapsis(deg)": 0.0030573483185156866,
        "Eccentricity": 0.0,
        "Inclination(deg)": 45.0,
        "Latitude(deg)": -9.44931802389736,
        "Longitude(deg)": -74.7136901018676,
        "Mean Anomaly(deg)": -13.267841847255166,
        "RAAN(deg)": 34.99711395255595,
        "Satellite Name": "Constellation 1 175",
        "Satellite Number": 175,
        "Semi-Major Axis(m)": 7083131.272910544,
        "Time(s)": 51
    },
    {
        "Altitude(m)": 705131.0474385356,
        "Argument of Periapsis(deg)": 0.003117296324761092,
        "Eccentricity": 0.0,
        "Inclination(deg)": 45.0,
        "Latitude(deg)": -9.406724691604072,
        "Longitude(deg)": -74.67378613213963,
        "Mean Anomaly(deg)": -13.207140707005255,
        "RAAN(deg)": 34.99705736339038,
        "Satellite Name": "Constellation 1 175",
        "Satellite Number": 175,
        "Semi-Major Axis(m)": 7083131.272910544,
        "Time(s)": 52
    },
    {
        "Altitude(m)": 705121.2457871375,
        "Argument of Periapsis(deg)": 0.0031772443310064975,
        "Eccentricity": 0.0,
        "Inclination(deg)": 45.0,
        "Latitude(deg)": -9.364125684259745,
        "Longitude(deg)": -74.63389266594943,
        "Mean Anomaly(deg)": -13.146439566755395,
        "RAAN(deg)": 34.99700077422481,
        "Satellite Name": "Constellation 1 175",
        "Satellite Number": 175,
        "Semi-Major Axis(m)": 7083131.272910544,
        "Time(s)": 53
    },
    {
        "Altitude(m)": 705111.4612332695,
        "Argument of Periapsis(deg)": 0.0032371923372519038,
        "Eccentricity": 0.0,
        "Inclination(deg)": 45.0,
        "Latitude(deg)": -9.321521028925439,
        "Longitude(deg)": -74.59400982068877,
        "Mean Anomaly(deg)": -13.085738426505486,
        "RAAN(deg)": 34.99694418505925,
        "Satellite Name": "Constellation 1 175",
        "Satellite Number": 175,
        "Semi-Major Axis(m)": 7083131.272910544,
        "Time(s)": 54
    },
    {
        "Altitude(m)": 705101.693802742,
        "Argument of Periapsis(deg)": 0.0032971403434973088,
        "Eccentricity": 0.0,
        "Inclination(deg)": 45.0,
        "Latitude(deg)": -9.278910752642199,
        "Longitude(deg)": -74.55413754567387,
        "Mean Anomaly(deg)": -13.025037286255573,
        "RAAN(deg)": 34.996887595893675,
        "Satellite Name": "Constellation 1 175",
        "Satellite Number": 175,
        "Semi-Major Axis(m)": 7083131.272910544,
        "Time(s)": 55
    },
    {
        "Altitude(m)": 705091.9435212878,
        "Argument of Periapsis(deg)": 0.0033570883497427146,
        "Eccentricity": 0.0,
        "Inclination(deg)": 45.0,
        "Latitude(deg)": -9.236294882431132,
        "Longitude(deg)": -74.51427579024255,
        "Mean Anomaly(deg)": -12.964336146005715,
        "RAAN(deg)": 34.99683100672811,
        "Satellite Name": "Constellation 1 175",
        "Satellite Number": 175,
        "Semi-Major Axis(m)": 7083131.272910544,
        "Time(s)": 56
    }
]